[
    {
        "Altitude(m)": 569876.4039531596,
        "Argument of Periapsis(deg)": 0.019868973332140504,
        "Eccentricity": 0.0,
        "Inclination(deg)": 53.0,
        "Latitude(deg)": -48.15975567038548,
        "Longitude(deg)": -65.55424711052333,
        "Mean Anomaly(deg)": -111.54332139726722,
        "RAAN(deg)": 159.97043010558406,
        "Satellite Name": "Starlink Shell 1 717",
        "Satellite Number": 717,
        "Semi-Major Axis(m)": 6931778.249405717,
        "Time(s)": 570
    },
    {
        "Altitude(m)": 569985.3204609145,
        "Argument of Periapsis(deg)": 0.02021755181165174,
        "Eccentricity": 0.0,
        "Inclination(deg)": 53.0,
        "Latitude(deg)": -48.430012663371336,
        "Longitude(deg)": -64.75067476602378,
        "Mean Anomaly(deg)": -110.91649019371056,
        "RAAN(deg)": 159.96991133550657,
        "Satellite Name": "Starlink Shell 1 717",
        "Satellite Number": 717,
        "Semi-Major Axis(m)": 6931778.249405717,
        "Time(s)": 580
    },
    {
        "Altitude(m)": 570091.496491747,
        "Argument of Periapsis(deg)": 0.020566130291162974,
        "Eccentricity": 0.0,
        "Inclination(deg)": 53.0,
        "Latitude(deg)": -48.693987529646066,
        "Longitude(deg)": -63.9382190932174,
        "Mean Anomaly(deg)": -110.28965899015381,
        "RAAN(deg)": 159.9693925654291,
        "Satellite Name": "Starlink Shell 1 717",
        "Satellite Number": 717,
        "Semi-Major Axis(m)": 6931778.249405717,
        "Time(s)": 590
    },
    {
        "Altitude(m)": 570194.8899136716,
        "Argument of Periapsis(deg)": 0.020914708770674213,
        "Eccentricity": 0.0,
        "Inclination(deg)": 53.0,
        "Latitude(deg)": -48.95155717948332,
        "Longitude(deg)": -63.11691848139598,
        "Mean Anomaly(deg)": -109.66282778659706,
        "RAAN(deg)": 159.96887379535164,
        "Satellite Name": "Starlink Shell 1 717",
        "Satellite Number": 717,
        "Semi-Major Axis(m)": 6931778.249405717,
        "Time(s)": 600
    },
    {
        "Altitude(m)": 570295.4596809655,
        "Argument of Periapsis(deg)": 0.021263287250185448,
        "Eccentricity": 0.0,
        "Inclination(deg)": 53.0,
        "Latitude(deg)": -49.20259847914638,
        "Longitude(deg)": -62.28682391709941,
        "Mean Anomaly(deg)": -109.03599658304037,
        "RAAN(deg)": 159.96835502527415,
        "Satellite Name": "Starlink Shell 1 717",
        "Satellite Number": 717,
        "Semi-Major Axis(m)": 6931778.249405717,
        "Time(s)": 610
    },
    {
        "Altitude(m)": 570393.1658520622,
        "Argument of Periapsis(deg)": 0.021611865729696686,
        "Eccentricity": 0.0,
        "Inclination(deg)": 53.0,
        "Latitude(deg)": -49.4469884432563,
        "Longitude(deg)": -61.4479989846119,
        "Mean Anomaly(deg)": -108.40916537948361,
        "RAAN(deg)": 159.9678362551967,
        "Satellite Name": "Starlink Shell 1 717",
        "Satellite Number": 717,
        "Semi-Major Axis(m)": 6931778.249405717,
        "Time(s)": 620
    },
    {
        "Altitude(m)": 570487.969606973,
        "Argument of Periapsis(deg)": 0.02196044420920792,
        "Eccentricity": 0.0,
        "Inclination(deg)": 53.0,
        "Latitude(deg)": -49.68460443791274,
        "Longitude(deg)": -60.60052152645121,
        "Mean Anomaly(deg)": -107.78233417592698,
        "RAAN(deg)": 159.9673174851192,
        "Satellite Name": "Starlink Shell 1 717",
        "Satellite Number": 717,
        "Semi-Major Axis(m)": 6931778.249405717,
        "Time(s)": 630
    },
    {
        "Altitude(m)": 570579.8332641996,
        "Argument of Periapsis(deg)": 0.02230902268871916,
        "Eccentricity": 0.0,
        "Inclination(deg)": 53.0,
        "Latitude(deg)": -49.91532439430875,
        "Longitude(deg)": -59.74448275680103,
        "Mean Anomaly(deg)": -107.15550297237019,
        "RAAN(deg)": 159.96679871504173,
        "Satellite Name": "Starlink Shell 1 717",
        "Satellite Number": 717,
        "Semi-Major Axis(m)": 6931778.249405717,
        "Time(s)": 640
    },
    {
        "Altitude(m)": 570668.7202971468,
        "Argument of Periapsis(deg)": 0.022657601168230398,
        "Eccentricity": 0.0,
        "Inclination(deg)": 53.0,
        "Latitude(deg)": -50.139027032487064,
        "Longitude(deg)": -58.8799888660151,
        "Mean Anomaly(deg)": -106.5286717688135,
        "RAAN(deg)": 159.96627994496427,
        "Satellite Name": "Starlink Shell 1 717",
        "Satellite Number": 717,
        "Semi-Major Axis(m)": 6931778.249405717,
        "Time(s)": 650
    },
    {
        "Altitude(m)": 570754.5953500209,
        "Argument of Periapsis(deg)": 0.023006179647741636,
        "Eccentricity": 0.0,
        "Inclination(deg)": 53.0,
        "Latitude(deg)": -50.355592094778295,
        "Longitude(deg)": -58.00716090880909,
        "Mean Anomaly(deg)": -105.90184056525679,
        "RAAN(deg)": 159.9657611748868,
        "Satellite Name": "Starlink Shell 1 717",
        "Satellite Number": 717,
        "Semi-Major Axis(m)": 6931778.249405717,
        "Time(s)": 660
    },
    {
        "Altitude(m)": 570837.4242532189,
        "Argument of Periapsis(deg)": 0.023354758127252868,
        "Eccentricity": 0.0,
        "Inclination(deg)": 53.0,
        "Latitude(deg)": -50.56490058835532,
        "Longitude(deg)": -57.12613465207412,
        "Mean Anomaly(deg)": -105.2750093617,
        "RAAN(deg)": 159.96524240480932,
        "Satellite Name": "Starlink Shell 1 717",
        "Satellite Number": 717,
        "Semi-Major Axis(m)": 6931778.249405717,
        "Time(s)": 670
    },
    {
        "Altitude(m)": 570917.1740381874,
        "Argument of Periapsis(deg)": 0.023703336606764106,
        "Eccentricity": 0.0,
        "Inclination(deg)": 53.0,
        "Latitude(deg)": -50.76683503622821,
        "Longitude(deg)": -56.23706189009008,
        "Mean Anomaly(deg)": -104.64817815814335,
        "RAAN(deg)": 159.96472363473185,
        "Satellite Name": "Starlink Shell 1 717",
        "Satellite Number": 717,
        "Semi-Major Axis(m)": 6931778.249405717,
        "Time(s)": 680
    },
    {
        "Altitude(m)": 570993.8129517548,
        "Argument of Periapsis(deg)": 0.024051915086275345,
        "Eccentricity": 0.0,
        "Inclination(deg)": 53.0,
        "Latitude(deg)": -50.96127973588452,
        "Longitude(deg)": -55.340110196298575,
        "Mean Anomaly(deg)": -104.0213469545867,
        "RAAN(deg)": 159.96420486465436,
        "Satellite Name": "Starlink Shell 1 717",
        "Satellite Number": 717,
        "Semi-Major Axis(m)": 6931778.249405717,
        "Time(s)": 690
    },
    {
        "Altitude(m)": 571067.3104699326,
        "Argument of Periapsis(deg)": 0.024400493565786583,
        "Eccentricity": 0.0,
        "Inclination(deg)": 53.0,
        "Latitude(deg)": -51.14812102466784,
        "Longitude(deg)": -54.43546261949599,
        "Mean Anomaly(deg)": -103.39451575102994,
        "RAAN(deg)": 159.9636860945769,
        "Satellite Name": "Starlink Shell 1 717",
        "Satellite Number": 717,
        "Semi-Major Axis(m)": 6931778.249405717,
        "Time(s)": 700
    },
    {
        "Altitude(m)": 571137.6373111787,
        "Argument of Periapsis(deg)": 0.024749072045297815,
        "Eccentricity": 0.0,
        "Inclination(deg)": 53.0,
        "Latitude(deg)": -51.32724755087174,
        "Longitude(deg)": -53.523318832444424,
        "Mean Anomaly(deg)": -102.76768454747324,
        "RAAN(deg)": 159.96316732449944,
        "Satellite Name": "Starlink Shell 1 717",
        "Satellite Number": 717,
        "Semi-Major Axis(m)": 6931778.249405717,
        "Time(s)": 710
    },
    {
        "Altitude(m)": 571204.7654491033,
        "Argument of Periapsis(deg)": 0.025097650524809053,
        "Eccentricity": 0.0,
        "Inclination(deg)": 53.0,
        "Latitude(deg)": -51.49855054940871,
        "Longitude(deg)": -52.603894702481576,
        "Mean Anomaly(deg)": -102.14085334391652,
        "RAAN(deg)": 159.96264855442197,
        "Satellite Name": "Starlink Shell 1 717",
        "Satellite Number": 717,
        "Semi-Major Axis(m)": 6931778.249405717,
        "Time(s)": 720
    },
    {
        "Altitude(m)": 571268.6681246348,
        "Argument of Periapsis(deg)": 0.02544622900432029,
        "Eccentricity": 0.0,
        "Inclination(deg)": 53.0,
        "Latitude(deg)": -51.6619241208056,
        "Longitude(deg)": -51.677421792632416,
        "Mean Anomaly(deg)": -101.51402214035976,
        "RAAN(deg)": 159.96212978434448,
        "Satellite Name": "Starlink Shell 1 717",
        "Satellite Number": 717,
        "Semi-Major Axis(m)": 6931778.249405717,
        "Time(s)": 730
    },
    {
        "Altitude(m)": 571329.319857644,
        "Argument of Periapsis(deg)": 0.02579480748383153,
        "Eccentricity": 0.0,
        "Inclination(deg)": 53.0,
        "Latitude(deg)": -51.8172655121735,
        "Longitude(deg)": -50.744148302090075,
        "Mean Anomaly(deg)": -100.88719093680311,
        "RAAN(deg)": 159.96161101426702,
        "Satellite Name": "Starlink Shell 1 717",
        "Satellite Number": 717,
        "Semi-Major Axis(m)": 6931778.249405717,
        "Time(s)": 740
    },
    {
        "Altitude(m)": 571386.6964579879,
        "Argument of Periapsis(deg)": 0.026143385963342765,
        "Eccentricity": 0.0,
        "Inclination(deg)": 53.0,
        "Latitude(deg)": -51.96447539869748,
        "Longitude(deg)": -49.80433841675265,
        "Mean Anomaly(deg)": -100.26035973324636,
        "RAAN(deg)": 159.96109224418953,
        "Satellite Name": "Starlink Shell 1 717",
        "Satellite Number": 717,
        "Semi-Major Axis(m)": 6931778.249405717,
        "Time(s)": 750
    }
]